[
    {
        "Altitude(m)": 559886.4823779241,
        "Argument of Periapsis(deg)": 0.033114955553567506,
        "Eccentricity": 0.0,
        "Inclination(deg)": 53.0,
        "Latitude(deg)": 53.08911412719281,
        "Longitude(deg)": -90.14945933666345,
        "Mean Anomaly(deg)": -267.72373566211206,
        "RAAN(deg)": 279.95071684264,
        "Satellite Name": "Starlink Shell 1 1234",
        "Satellite Number": 1234,
        "Semi-Major Axis(m)": 6931778.249405717,
        "Time(s)": 950
    },
    {
        "Altitude(m)": 559877.9195187222,
        "Argument of Periapsis(deg)": 0.03346353403307874,
        "Eccentricity": 0.0,
        "Inclination(deg)": 53.0,
        "Latitude(deg)": 53.0510659688838,
        "Longitude(deg)": -89.15228670588057,
        "Mean Anomaly(deg)": -267.09690445855534,
        "RAAN(deg)": 279.9501980725626,
        "Satellite Name": "Starlink Shell 1 1234",
        "Satellite Number": 1234,
        "Semi-Major Axis(m)": 6931778.249405717,
        "Time(s)": 960
    },
    {
        "Altitude(m)": 559867.3011794861,
        "Argument of Periapsis(deg)": 0.03381211251258998,
        "Eccentricity": 0.0,
        "Inclination(deg)": 53.0,
        "Latitude(deg)": 53.00397536688624,
        "Longitude(deg)": -88.1571570366848,
        "Mean Anomaly(deg)": -266.4700732549987,
        "RAAN(deg)": 279.94967930248515,
        "Satellite Name": "Starlink Shell 1 1234",
        "Satellite Number": 1234,
        "Semi-Major Axis(m)": 6931778.249405717,
        "Time(s)": 970
    },
    {
        "Altitude(m)": 559854.6337681267,
        "Argument of Periapsis(deg)": 0.034160690992101214,
        "Eccentricity": 0.0,
        "Inclination(deg)": 53.0,
        "Latitude(deg)": 52.94787712841482,
        "Longitude(deg)": -87.16449399675163,
        "Mean Anomaly(deg)": -265.8432420514419,
        "RAAN(deg)": 279.94916053240763,
        "Satellite Name": "Starlink Shell 1 1234",
        "Satellite Number": 1234,
        "Semi-Major Axis(m)": 6931778.249405717,
        "Time(s)": 980
    },
    {
        "Altitude(m)": 559839.9249236876,
        "Argument of Periapsis(deg)": 0.034509269471612446,
        "Eccentricity": 0.0,
        "Inclination(deg)": 53.0,
        "Latitude(deg)": 52.88281248968787,
        "Longitude(deg)": -86.17471348745012,
        "Mean Anomaly(deg)": -265.2164108478852,
        "RAAN(deg)": 279.94864176233017,
        "Satellite Name": "Starlink Shell 1 1234",
        "Satellite Number": 1234,
        "Semi-Major Axis(m)": 6931778.249405717,
        "Time(s)": 990
    }
]